[{"OBJECT_NAME":"EXO-0","OBJECT_ID":"2023-174DK","EPOCH":"2026-03-09T17:03:04.419648","MEAN_MOTION":15.32821991,"ECCENTRICITY":0.00098779,"INCLINATION":97.3864,"RA_OF_ASC_NODE":148.9039,"ARG_OF_PERICENTER":157.1125,"MEAN_ANOMALY":203.0559,"EPHEMERIS_TYPE":0,"CLASSIFICATION_TYPE":"U","NORAD_CAT_ID":59175,"ELEMENT_SET_NO":999,"REV_AT_EPOCH":12979,"BSTAR":0.00036716083,"MEAN_MOTION_DOT":0.00011582,"MEAN_MOTION_DDOT":0},{"OBJECT_NAME":"STARLINK-35020","OBJECT_ID":"2025-189T","EPOCH":"2026-03-09T21:45:26.269920","MEAN_MOTION":15.30208225,"ECCENTRICITY":0.00016568,"INCLINATION":53.1599,"RA_OF_ASC_NODE":205.4732,"ARG_OF_PERICENTER":51.9803,"MEAN_ANOMALY":308.1347,"EPHEMERIS_TYPE":0,"CLASSIFICATION_TYPE":"U","NORAD_CAT_ID":65340,"ELEMENT_SET_NO":999,"REV_AT_EPOCH":3109,"BSTAR":0.0013477456,"MEAN_MOTION_DOT":0.00039782,"MEAN_MOTION_DDOT":0}]
